NORAD_CAT_ID,OBJECT_NAME,OBJECT_TYPE,EPOCH,MEAN_MOTION,ECCENTRICITY,INCLINATION,RA_OF_ASC_NODE,ARG_OF_PERICENTER,MEAN_ANOMALY,BSTAR,MEAN_MOTION_DOT,MEAN_MOTION_DDOT,TLE_LINE0,TLE_LINE1,TLE_LINE2,SEMIMAJOR_AXIS,PERIOD,APOGEE,PERIGEE,DECAYED
56466.0,STARLINK-6053,PAYLOAD,2023-06-15 04:00:00,15.55991615,0.0003393,69.9991,145.869,270.4578,46.9921,-0.014318,-0.0090874,0.0,0 STARLINK-6053,1 56466U 23064U   23166.16667824 -.00908740  00000-0 -14318-1 0  9998,2 56466  69.9991 145.8690 0003393 270.4578  46.9921 15.55991615  5931,6777.409,92.545,401.573,396.974,0.0
56466.0,STARLINK-6053,PAYLOAD,2023-06-15 14:00:01,15.55195693,0.0003267,69.9989,144.7222,273.1965,216.9227,-0.01526,-0.00937433,0.0,0 STARLINK-6053,1 56466U 23064U   23166.58334491 -.00937433  00000-0 -15260-1 0  9993,2 56466  69.9989 144.7222 0003267 273.1965 216.9227 15.55195693  1304,6779.721,92.593,403.801,399.371,0.0
56466.0,STARLINK-6053,PAYLOAD,2023-06-15 20:00:01,15.54679413,0.0003443,69.9992,144.035,268.5544,180.5886,-0.014393,-0.00873554,0.0,0 STARLINK-6053,1 56466U 23064U   23166.83334491 -.00873554  00000-0 -14393-1 0  9990,2 56466  69.9992 144.0350 0003443 268.5544 180.5886 15.54679413  1303,6781.222,92.624,405.421,400.752,0.0
56466.0,STARLINK-6053,PAYLOAD,2023-06-16 01:48:37,15.55762767,0.0002709,69.9984,143.3724,271.9659,88.1219,-0.0034845,-0.00234444,0.0,0 STARLINK-6053,1 56466U 23064U   23167.07543508 -.00234444  00000-0 -34845-2 0  9992,2 56466  69.9984 143.3724 0002709 271.9659  88.1219 15.55762767  6078,6778.073,92.559,401.774,398.102,0.0
56466.0,STARLINK-6053,PAYLOAD,2023-06-16 12:00:00,15.53418805,0.0003425,69.999,142.2046,271.0625,306.6408,-0.016703,-0.00972896,0.0,0 STARLINK-6053,1 56466U 23064U   23167.50001157 -.00972896  00000-0 -16703-1 0  9991,2 56466  69.9990 142.2046 0003425 271.0625 306.6408 15.53418805  6145,6784.89,92.699,409.079,404.431,0.0
56466.0,STARLINK-6053,PAYLOAD,2023-06-16 14:00:01,15.53239672,0.0003557,69.999,141.9759,269.2729,54.2891,-0.016431,-0.0093941,0.0,0 STARLINK-6053,1 56466U 23064U   23167.58334491 -.00939410  00000-0 -16431-1 0  9992,2 56466  69.9990 141.9759 0003557 269.2729  54.2891 15.53239672  1300,6785.412,92.709,409.69,404.863,0.0
56466.0,STARLINK-6053,PAYLOAD,2023-06-16 20:00:01,15.5272605,0.0003612,69.9991,141.2907,264.7342,16.09,-0.015568,-0.00879343,0.0,0 STARLINK-6053,1 56466U 23064U   23167.83334491 -.00879343  00000-0 -15568-1 0  9998,2 56466  69.9991 141.2907 0003612 264.7342  16.0900 15.52726050  6191,6786.908,92.74,411.224,406.321,0.0
56466.0,STARLINK-6053,PAYLOAD,2023-06-16 22:00:00,15.52593261,0.0003626,69.9994,141.0624,267.2517,119.2188,-0.016601,-0.00928261,0.0,0 STARLINK-6053,1 56466U 23064U   23167.91667824 -.00928261  00000-0 -16601-1 0  9999,2 56466  69.9994 141.0624 0003626 267.2517 119.2188 15.52593261  1303,6787.295,92.748,411.621,406.699,0.0
56466.0,STARLINK-6053,PAYLOAD,2023-06-17 10:16:31,15.52649563,0.0003612,69.9989,139.6681,274.6321,85.4453,-0.0025738,-0.00156185,0.0,0 STARLINK-6053,1 56466U 23064U   23168.42813831 -.00156185  00000-0 -25738-2 0  9997,2 56466  69.9989 139.6681 0003612 274.6321  85.4453 15.52649563  5932,6787.131,92.745,411.447,406.544,0.0
56466.0,STARLINK-6053,PAYLOAD,2023-06-17 12:00:00,15.51308891,0.0003485,69.9992,139.4656,274.2543,130.454,-0.0026429,-0.00152917,0.0,0 STARLINK-6053,1 56466U 23064U   23168.50001157 -.00152917  00000-0 -26429-2 0  9993,2 56466  69.9992 139.4656 0003485 274.2543 130.4540 15.51308891  6299,6791.04,92.825,415.272,410.539,0.0
56466.0,STARLINK-6053,PAYLOAD,2023-06-17 20:00:01,15.51182116,0.0003535,69.9996,138.5544,267.767,197.89,0.0014084,0.00083316,0.0,0 STARLINK-6053,1 56466U 23064U   23168.83334491  .00083316  00000-0  14084-2 0  9997,2 56466  69.9996 138.5544 0003535 267.7670 197.8900 15.51182116  6357,6791.411,92.832,415.676,410.875,0.0
56466.0,STARLINK-6053,PAYLOAD,2023-06-17 21:06:14,15.52248145,0.0002969,69.9988,138.4338,269.1816,90.9031,-0.0025948,-0.00155204,0.0,0 STARLINK-6053,1 56466U 23064U   23168.87933584 -.00155204  00000-0 -25948-2 0  9998,2 56466  69.9988 138.4338 0002969 269.1816  90.9031 15.52248145  6002,6788.301,92.769,412.181,408.15,0.0
56466.0,STARLINK-6053,PAYLOAD,2023-06-18 04:00:00,15.51227187,0.0003602,69.9996,137.6433,271.4902,255.0673,4.6737e-05,2.582e-05,0.0,0 STARLINK-6053,1 56466U 23064U   23169.16667824  .00002582  00000-0  46737-4 0  9991,2 56466  69.9996 137.6433 0003602 271.4902 255.0673 15.51227187  6407,6791.279,92.83,415.59,410.698,0.0
56466.0,STARLINK-6053,PAYLOAD,2023-06-18 14:00:01,15.51227328,0.0003661,69.9995,136.504,270.6158,62.1286,-0.00045076,-0.00026558,0.0,0 STARLINK-6053,1 56466U 23064U   23169.58335648 -.00026558  00000-0 -45076-3 0  9998,2 56466  69.9995 136.5040 0003661 270.6158  62.1286 15.51227328  1305,6791.279,92.83,415.63,410.657,0.0
56466.0,STARLINK-6053,PAYLOAD,2023-06-18 22:00:00,15.51236616,0.0003705,70.0,135.5929,266.3612,127.2206,0.00040509,0.00023713,0.0,0 STARLINK-6053,1 56466U 23064U   23169.91667824  .00023713  00000-0  40509-3 0  9993,2 56466  70.0000 135.5929 0003705 266.3612 127.2206 15.51236616  1301,6791.251,92.829,415.633,410.6,0.0
56466.0,STARLINK-6053,PAYLOAD,2023-06-19 06:00:00,15.51241096,0.0003723,70.0002,134.6815,272.2,182.3245,-0.00020814,-0.0001238,0.0,0 STARLINK-6053,1 56466U 23064U   23170.25001157 -.00012380  00000-0 -20814-3 0  9990,2 56466  70.0002 134.6815 0003723 272.2000 182.3245 15.51241096  6571,6791.238,92.829,415.632,410.575,0.0
56466.0,STARLINK-6053,PAYLOAD,2023-06-19 14:00:01,15.51322014,0.000367,69.9999,133.7701,269.1435,246.293,-0.0051049,-0.00290345,0.0,0 STARLINK-6053,1 56466U 23064U   23170.58334491 -.00290345  00000-0 -51049-2 0  9998,2 56466  69.9999 133.7701 0003670 269.1435 246.2930 15.51322014  1302,6791.002,92.824,415.359,410.375,0.0
56466.0,STARLINK-6053,PAYLOAD,2023-06-19 22:00:00,15.51355652,0.0003428,70.0003,132.8588,263.7114,312.6327,-0.017848,-0.00965562,0.0,0 STARLINK-6053,1 56466U 23064U   23170.91667824 -.00965562  00000-0 -17848-1 0  9992,2 56466  70.0003 132.8588 0003428 263.7114 312.6327 15.51355652  6676,6790.904,92.822,415.097,410.441,0.0
56466.0,STARLINK-6053,PAYLOAD,2023-06-20 14:00:01,15.50004309,0.0003142,70.0002,131.0377,267.0253,69.8227,-0.017558,-0.00897548,0.0,0 STARLINK-6053,1 56466U 23064U   23171.58334491 -.00897548  00000-0 -17558-1 0  9993,2 56466  70.0002 131.0377 0003142 267.0253  69.8227 15.50004309  6776,6794.85,92.903,418.85,414.581,0.0
56466.0,STARLINK-6053,PAYLOAD,2023-06-20 22:00:00,15.49402342,0.0003254,70.0005,130.1289,265.878,130.0162,-0.019297,-0.00973099,0.0,0 STARLINK-6053,1 56466U 23064U   23171.91667824 -.00973099  00000-0 -19297-1 0  9997,2 56466  70.0005 130.1289 0003254 265.8780 130.0162 15.49402342  1306,6796.61,92.939,420.687,416.264,0.0
56466.0,STARLINK-6053,PAYLOAD,2023-06-21 14:00:01,15.48044769,0.0003153,70.0002,128.313,269.0309,242.6736,-0.018637,-0.00901884,0.0,0 STARLINK-6053,1 56466U 23064U   23172.58334491 -.00901884  00000-0 -18637-1 0  9992,2 56466  70.0002 128.3130 0003153 269.0309 242.6736 15.48044769  6933,6800.583,93.021,424.593,420.304,0.0
56466.0,STARLINK-6053,PAYLOAD,2023-06-21 22:00:01,15.47434684,0.0003186,70.0007,127.4066,265.6632,302.809,-0.020265,-0.00955286,0.0,0 STARLINK-6053,1 56466U 23064U   23172.91668981 -.00955286  00000-0 -20265-1 0  9998,2 56466  70.0007 127.4066 0003186 265.6632 302.8090 15.47434684  1309,6802.371,93.057,426.403,422.068,0.0
56466.0,STARLINK-6053,PAYLOAD,2023-06-22 06:00:00,15.4673417,0.0003197,70.0007,126.5009,273.0026,351.3608,-0.019002,-0.00868784,0.0,0 STARLINK-6053,1 56466U 23064U   23173.25001157 -.00868784  00000-0 -19002-1 0  9995,2 56466  70.0007 126.5009 0003197 273.0026 351.3608 15.46734170  7030,6804.424,93.099,428.465,424.114,0.0
56466.0,STARLINK-6053,PAYLOAD,2023-06-22 20:00:01,15.45628854,0.0003305,70.0004,124.9182,264.6376,5.7202,-0.020962,-0.00930445,0.0,0 STARLINK-6053,1 56466U 23064U   23173.83334491 -.00930445  00000-0 -20962-1 0  9990,2 56466  70.0004 124.9182 0003305 264.6376   5.7202 15.45628854  7126,6807.668,93.166,431.783,427.283,0.0
56466.0,STARLINK-6053,PAYLOAD,2023-06-23 22:00:01,15.43523465,0.0003208,70.0004,121.9862,267.1188,265.2506,-0.023366,-0.00962318,0.0,0 STARLINK-6053,1 56466U 23064U   23174.91668981 -.00962318  00000-0 -23366-1 0  9999,2 56466  70.0004 121.9862 0003208 267.1188 265.2506 15.43523465  7297,6813.857,93.293,437.908,433.536,0.0
56466.0,STARLINK-6053,PAYLOAD,2023-06-24 14:00:01,15.42163707,0.0003344,70.0,120.1863,268.2051,5.8277,-0.022283,-0.00883135,0.0,0 STARLINK-6053,1 56466U 23064U   23175.58334491 -.00883135  00000-0 -22283-1 0  9995,2 56466  70.0000 120.1863 0003344 268.2051   5.8277 15.42163707  7399,6817.862,93.375,442.007,437.447,0.0
56466.0,STARLINK-6053,PAYLOAD,2023-06-25 06:00:00,15.40862936,0.0003533,69.9999,118.3901,275.406,97.2009,-0.023211,-0.00881012,0.0,0 STARLINK-6053,1 56466U 23064U   23176.25001157 -.00881012  00000-0 -23211-1 0  9994,2 56466  69.9999 118.3901 0003533 275.4060  97.2009 15.40862936  7492,6821.698,93.454,445.973,441.153,0.0
56466.0,STARLINK-6053,PAYLOAD,2023-06-25 22:00:01,15.39605527,0.00034,70.0,116.5971,268.8635,199.2434,-0.026544,-0.00959265,0.0,0 STARLINK-6053,1 56466U 23064U   23176.91668981 -.00959265  00000-0 -26544-1 0  9999,2 56466  70.0000 116.5971 0003400 268.8635 199.2434 15.39605527  7609,6825.412,93.53,449.598,444.956,0.0
56466.0,STARLINK-6053,PAYLOAD,2023-06-26 14:00:01,15.38245928,0.0003348,69.9996,114.8077,270.0244,290.3551,-0.02509,-0.00874115,0.0,0 STARLINK-6053,1 56466U 23064U   23177.58334491 -.00874115  00000-0 -25090-1 0  9994,2 56466  69.9996 114.8077 0003348 270.0244 290.3551 15.38245928  7708,6829.433,93.613,453.585,449.012,0.0
56466.0,STARLINK-6053,PAYLOAD,2023-06-27 06:00:00,15.36951538,0.0003464,69.9997,113.022,272.8191,16.7442,-0.026346,-0.00879578,0.0,0 STARLINK-6053,1 56466U 23064U   23178.25001157 -.00879578  00000-0 -26346-1 0  9992,2 56466  69.9997 113.0220 0003464 272.8191  16.7442 15.36951538  7809,6833.267,93.692,457.499,452.765,0.0
